0 COSMOS 2251 DEB
1 34314U 93036NL  13281.70882845  .00001061  00000-0  57134-3 0  1187
2 34314 074.0224 264.6779 0122097 311.7894 101.9247 14.10329117238524
0 COSMOS 2251 DEB
1 34314U 93036NL  13283.05878992  .00001096  00000-0  58969-3 0  1191
2 34314 074.0226 262.2988 0122125 309.1397 115.8956 14.10334392238716
0 COSMOS 2251 DEB
1 34314U 93036NL  13286.03815073  .00001128  00000-0  60614-3 0  1212
2 34314 074.0233 257.0481 0122151 303.2895 122.6653 14.10342385239139
0 COSMOS 2251 DEB
1 34314U 93036NL  13287.32533828  .00001255  00000-0  67300-3 0  1221
2 34314 074.0238 254.7796 0122156 300.7540 177.9931 14.10345747239318
0 COSMOS 2251 DEB
1 34314U 93036NL  13288.65961135  .00001455  00000-0  77774-3 0  1233
2 34314 074.0243 252.4283 0122157 298.1173 112.4122 14.10350528239503
0 COSMOS 2251 DEB
1 34314U 93036NL  13289.93722883  .00001404  00000-0  75121-3 0  1249
2 34314 074.0247 250.1769 0122142 295.6015 119.1861 14.10355215239683
0 COSMOS 2251 DEB
1 34314U 93036NL  13291.00408674  .00001429  00000-0  76407-3 0  1255
2 34314 074.0250 248.2969 0122125 293.5046 135.8961 14.10358617239831
0 COSMOS 2251 DEB
1 34314U 93036NL  13292.29129767  .00001492  00000-0  79727-3 0  1269
2 34314 074.0252 246.0287 0122084 290.9765 191.4093 14.10362183240014
0 COSMOS 2251 DEB
1 34314U 93036NL  13293.62470302  .00001575  00000-0  84068-3 0  1278
2 34314 074.0254 243.6793 0122045 288.3499 121.4917 14.10366587240204
0 COSMOS 2251 DEB
1 34314U 93036NL  13295.05915748  .00001554  00000-0  82974-3 0  1287
2 34314 074.0256 241.1518 0121974 285.5302 204.6440 14.10371598240401
